<?xml version="1.0" encoding="UTF-8"?>
<ndm xmlns:xsi="http://www.w3.org/2001/XMLSchema-instance" xsi:noNamespaceSchemaLocation="https://sanaregistry.org/r/ndmxml_unqualified/ndmxml-2.0.0-master-2.0.xsd">
<omm id="CCSDS_OMM_VERS" version="2.0">
<header><CREATION_DATE/><ORIGINATOR/></header><body><segment><metadata><OBJECT_NAME>ONEWEB-0446</OBJECT_NAME><OBJECT_ID>2022-012U</OBJECT_ID><CENTER_NAME>EARTH</CENTER_NAME><REF_FRAME>TEME</REF_FRAME><TIME_SYSTEM>UTC</TIME_SYSTEM><MEAN_ELEMENT_THEORY>SGP4</MEAN_ELEMENT_THEORY></metadata><data><meanElements><EPOCH>2025-06-11T09:05:18.993984</EPOCH><MEAN_MOTION>13.10374920</MEAN_MOTION><ECCENTRICITY>.0002304</ECCENTRICITY><INCLINATION>87.8825</INCLINATION><RA_OF_ASC_NODE>110.2298</RA_OF_ASC_NODE><ARG_OF_PERICENTER>79.9843</ARG_OF_PERICENTER><MEAN_ANOMALY>280.1544</MEAN_ANOMALY></meanElements><tleParameters><EPHEMERIS_TYPE>0</EPHEMERIS_TYPE><CLASSIFICATION_TYPE>U</CLASSIFICATION_TYPE><NORAD_CAT_ID>51640</NORAD_CAT_ID><ELEMENT_SET_NO>999</ELEMENT_SET_NO><REV_AT_EPOCH>16206</REV_AT_EPOCH><BSTAR>.18856E-2</BSTAR><MEAN_MOTION_DOT>.671E-5</MEAN_MOTION_DOT><MEAN_MOTION_DDOT>0</MEAN_MOTION_DDOT></tleParameters></data></segment></body></omm>
<omm id="CCSDS_OMM_VERS" version="2.0">
<header><CREATION_DATE/><ORIGINATOR/></header><body><segment><metadata><OBJECT_NAME>ONEWEB-0448</OBJECT_NAME><OBJECT_ID>2022-012V</OBJECT_ID><CENTER_NAME>EARTH</CENTER_NAME><REF_FRAME>TEME</REF_FRAME><TIME_SYSTEM>UTC</TIME_SYSTEM><MEAN_ELEMENT_THEORY>SGP4</MEAN_ELEMENT_THEORY></metadata><data><meanElements><EPOCH>2025-06-11T09:12:28.601568</EPOCH><MEAN_MOTION>13.10372571</MEAN_MOTION><ECCENTRICITY>.0001991</ECCENTRICITY><INCLINATION>87.8825</INCLINATION><RA_OF_ASC_NODE>110.2285</RA_OF_ASC_NODE><ARG_OF_PERICENTER>80.7062</ARG_OF_PERICENTER><MEAN_ANOMALY>279.4290</MEAN_ANOMALY></meanElements><tleParameters><EPHEMERIS_TYPE>0</EPHEMERIS_TYPE><CLASSIFICATION_TYPE>U</CLASSIFICATION_TYPE><NORAD_CAT_ID>51641</NORAD_CAT_ID><ELEMENT_SET_NO>999</ELEMENT_SET_NO><REV_AT_EPOCH>16202</REV_AT_EPOCH><BSTAR>.11295E-2</BSTAR><MEAN_MOTION_DOT>.407E-5</MEAN_MOTION_DOT><MEAN_MOTION_DDOT>0</MEAN_MOTION_DDOT></tleParameters></data></segment></body></omm>
<omm id="CCSDS_OMM_VERS" version="2.0">
<header><CREATION_DATE/><ORIGINATOR/></header><body><segment><metadata><OBJECT_NAME>ONEWEB-0449</OBJECT_NAME><OBJECT_ID>2022-012W</OBJECT_ID><CENTER_NAME>EARTH</CENTER_NAME><REF_FRAME>TEME</REF_FRAME><TIME_SYSTEM>UTC</TIME_SYSTEM><MEAN_ELEMENT_THEORY>SGP4</MEAN_ELEMENT_THEORY></metadata><data><meanElements><EPOCH>2025-06-11T12:59:34.050048</EPOCH><MEAN_MOTION>13.10371933</MEAN_MOTION><ECCENTRICITY>.0001772</ECCENTRICITY><INCLINATION>87.8817</INCLINATION><RA_OF_ASC_NODE>110.1721</RA_OF_ASC_NODE><ARG_OF_PERICENTER>68.4391</ARG_OF_PERICENTER><MEAN_ANOMALY>291.6925</MEAN_ANOMALY></meanElements><tleParameters><EPHEMERIS_TYPE>0</EPHEMERIS_TYPE><CLASSIFICATION_TYPE>U</CLASSIFICATION_TYPE><NORAD_CAT_ID>51642</NORAD_CAT_ID><ELEMENT_SET_NO>999</ELEMENT_SET_NO><REV_AT_EPOCH>16206</REV_AT_EPOCH><BSTAR>.16233E-2</BSTAR><MEAN_MOTION_DOT>.579E-5</MEAN_MOTION_DOT><MEAN_MOTION_DDOT>0</MEAN_MOTION_DDOT></tleParameters></data></segment></body></omm>
<omm id="CCSDS_OMM_VERS" version="2.0">
<header><CREATION_DATE/><ORIGINATOR/></header><body><segment><metadata><OBJECT_NAME>ONEWEB-0451</OBJECT_NAME><OBJECT_ID>2022-012X</OBJECT_ID><CENTER_NAME>EARTH</CENTER_NAME><REF_FRAME>TEME</REF_FRAME><TIME_SYSTEM>UTC</TIME_SYSTEM><MEAN_ELEMENT_THEORY>SGP4</MEAN_ELEMENT_THEORY></metadata><data><meanElements><EPOCH>2025-06-11T04:25:59.804544</EPOCH><MEAN_MOTION>13.17649987</MEAN_MOTION><ECCENTRICITY>.0001944</ECCENTRICITY><INCLINATION>87.9069</INCLINATION><RA_OF_ASC_NODE>79.6987</RA_OF_ASC_NODE><ARG_OF_PERICENTER>73.4318</ARG_OF_PERICENTER><MEAN_ANOMALY>286.7027</MEAN_ANOMALY></meanElements><tleParameters><EPHEMERIS_TYPE>0</EPHEMERIS_TYPE><CLASSIFICATION_TYPE>U</CLASSIFICATION_TYPE><NORAD_CAT_ID>51643</NORAD_CAT_ID><ELEMENT_SET_NO>999</ELEMENT_SET_NO><REV_AT_EPOCH>16610</REV_AT_EPOCH><BSTAR>.12258E-3</BSTAR><MEAN_MOTION_DOT>.6E-6</MEAN_MOTION_DOT><MEAN_MOTION_DDOT>0</MEAN_MOTION_DDOT></tleParameters></data></segment></body></omm>
<omm id="CCSDS_OMM_VERS" version="2.0">
<header><CREATION_DATE/><ORIGINATOR/></header><body><segment><metadata><OBJECT_NAME>ONEWEB-0452</OBJECT_NAME><OBJECT_ID>2022-012Y</OBJECT_ID><CENTER_NAME>EARTH</CENTER_NAME><REF_FRAME>TEME</REF_FRAME><TIME_SYSTEM>UTC</TIME_SYSTEM><MEAN_ELEMENT_THEORY>SGP4</MEAN_ELEMENT_THEORY></metadata><data><meanElements><EPOCH>2025-06-11T04:23:33.757440</EPOCH><MEAN_MOTION>13.17649524</MEAN_MOTION><ECCENTRICITY>.0001715</ECCENTRICITY><INCLINATION>87.9071</INCLINATION><RA_OF_ASC_NODE>79.7607</RA_OF_ASC_NODE><ARG_OF_PERICENTER>72.2947</ARG_OF_PERICENTER><MEAN_ANOMALY>287.8372</MEAN_ANOMALY></meanElements><tleParameters><EPHEMERIS_TYPE>0</EPHEMERIS_TYPE><CLASSIFICATION_TYPE>U</CLASSIFICATION_TYPE><NORAD_CAT_ID>51644</NORAD_CAT_ID><ELEMENT_SET_NO>999</ELEMENT_SET_NO><REV_AT_EPOCH>16611</REV_AT_EPOCH><BSTAR>.26008E-4</BSTAR><MEAN_MOTION_DOT>.23E-6</MEAN_MOTION_DOT><MEAN_MOTION_DDOT>0</MEAN_MOTION_DDOT></tleParameters></data></segment></body></omm>
<omm id="CCSDS_OMM_VERS" version="2.0">
<header><CREATION_DATE/><ORIGINATOR/></header><body><segment><metadata><OBJECT_NAME>ONEWEB-0456</OBJECT_NAME><OBJECT_ID>2022-012AA</OBJECT_ID><CENTER_NAME>EARTH</CENTER_NAME><REF_FRAME>TEME</REF_FRAME><TIME_SYSTEM>UTC</TIME_SYSTEM><MEAN_ELEMENT_THEORY>SGP4</MEAN_ELEMENT_THEORY></metadata><data><meanElements><EPOCH>2025-06-11T09:33:59.255136</EPOCH><MEAN_MOTION>13.10369631</MEAN_MOTION><ECCENTRICITY>.0002072</ECCENTRICITY><INCLINATION>87.8811</INCLINATION><RA_OF_ASC_NODE>110.1599</RA_OF_ASC_NODE><ARG_OF_PERICENTER>87.1593</ARG_OF_PERICENTER><MEAN_ANOMALY>272.9771</MEAN_ANOMALY></meanElements><tleParameters><EPHEMERIS_TYPE>0</EPHEMERIS_TYPE><CLASSIFICATION_TYPE>U</CLASSIFICATION_TYPE><NORAD_CAT_ID>51646</NORAD_CAT_ID><ELEMENT_SET_NO>999</ELEMENT_SET_NO><REV_AT_EPOCH>16207</REV_AT_EPOCH><BSTAR>.38797E-3</BSTAR><MEAN_MOTION_DOT>.148E-5</MEAN_MOTION_DOT><MEAN_MOTION_DDOT>0</MEAN_MOTION_DDOT></tleParameters></data></segment></body></omm>
<omm id="CCSDS_OMM_VERS" version="2.0">
<header><CREATION_DATE/><ORIGINATOR/></header><body><segment><metadata><OBJECT_NAME>ONEWEB-0457</OBJECT_NAME><OBJECT_ID>2022-012AB</OBJECT_ID><CENTER_NAME>EARTH</CENTER_NAME><REF_FRAME>TEME</REF_FRAME><TIME_SYSTEM>UTC</TIME_SYSTEM><MEAN_ELEMENT_THEORY>SGP4</MEAN_ELEMENT_THEORY></metadata><data><meanElements><EPOCH>2025-06-11T09:00:32.197824</EPOCH><MEAN_MOTION>13.10375632</MEAN_MOTION><ECCENTRICITY>.0002128</ECCENTRICITY><INCLINATION>87.8826</INCLINATION><RA_OF_ASC_NODE>110.2188</RA_OF_ASC_NODE><ARG_OF_PERICENTER>70.2060</ARG_OF_PERICENTER><MEAN_ANOMALY>289.9296</MEAN_ANOMALY></meanElements><tleParameters><EPHEMERIS_TYPE>0</EPHEMERIS_TYPE><CLASSIFICATION_TYPE>U</CLASSIFICATION_TYPE><NORAD_CAT_ID>51647</NORAD_CAT_ID><ELEMENT_SET_NO>999</ELEMENT_SET_NO><REV_AT_EPOCH>16208</REV_AT_EPOCH><BSTAR>.16756E-2</BSTAR><MEAN_MOTION_DOT>.598E-5</MEAN_MOTION_DOT><MEAN_MOTION_DDOT>0</MEAN_MOTION_DDOT></tleParameters></data></segment></body></omm>
<omm id="CCSDS_OMM_VERS" version="2.0">
<header><CREATION_DATE/><ORIGINATOR/></header><body><segment><metadata><OBJECT_NAME>ONEWEB-0458</OBJECT_NAME><OBJECT_ID>2022-012AC</OBJECT_ID><CENTER_NAME>EARTH</CENTER_NAME><REF_FRAME>TEME</REF_FRAME><TIME_SYSTEM>UTC</TIME_SYSTEM><MEAN_ELEMENT_THEORY>SGP4</MEAN_ELEMENT_THEORY></metadata><data><meanElements><EPOCH>2025-06-11T09:31:35.472576</EPOCH><MEAN_MOTION>13.10371100</MEAN_MOTION><ECCENTRICITY>.0001908</ECCENTRICITY><INCLINATION>87.8804</INCLINATION><RA_OF_ASC_NODE>110.1967</RA_OF_ASC_NODE><ARG_OF_PERICENTER>81.1090</ARG_OF_PERICENTER><MEAN_ANOMALY>279.0253</MEAN_ANOMALY></meanElements><tleParameters><EPHEMERIS_TYPE>0</EPHEMERIS_TYPE><CLASSIFICATION_TYPE>U</CLASSIFICATION_TYPE><NORAD_CAT_ID>51648</NORAD_CAT_ID><ELEMENT_SET_NO>999</ELEMENT_SET_NO><REV_AT_EPOCH>16204</REV_AT_EPOCH><BSTAR>.55919E-3</BSTAR><MEAN_MOTION_DOT>.208E-5</MEAN_MOTION_DOT><MEAN_MOTION_DDOT>0</MEAN_MOTION_DDOT></tleParameters></data></segment></body></omm>

</ndm>
