ONEWEB-0446             
1 51640U 22012U   25162.37869206  .00000671  00000+0  18856-2 0  9993
2 51640  87.8825 110.2298 0002304  79.9843 280.1544 13.10374920162067
ONEWEB-0448             
1 51641U 22012V   25162.38366437  .00000407  00000+0  11295-2 0  9990
2 51641  87.8825 110.2285 0001991  80.7062 279.4290 13.10372571162023
ONEWEB-0449             
1 51642U 22012W   25162.54136632  .00000579  00000+0  16233-2 0  9998
2 51642  87.8817 110.1721 0001772  68.4391 291.6925 13.10371933162060
ONEWEB-0451             
1 51643U 22012X   25162.18471996  .00000060  00000+0  12258-3 0  9993
2 51643  87.9069  79.6987 0001944  73.4318 286.7027 13.17649987166101
ONEWEB-0452             
1 51644U 22012Y   25162.18302960  .00000023  00000+0  26008-4 0  9996
2 51644  87.9071  79.7607 0001715  72.2947 287.8372 13.17649524166119
ONEWEB-0456             
1 51646U 22012AA  25162.39860249  .00000148  00000+0  38797-3 0  9995
2 51646  87.8811 110.1599 0002072  87.1593 272.9771 13.10369631162071
ONEWEB-0457             
1 51647U 22012AB  25162.37537266  .00000598  00000+0  16756-2 0  9993
2 51647  87.8826 110.2188 0002128  70.2060 289.9296 13.10375632162086
ONEWEB-0458             
1 51648U 22012AC  25162.39693834  .00000208  00000+0  55919-3 0  9993
2 51648  87.8804 110.1967 0001908  81.1090 279.0253 13.10371100162041
